{"type": "FeatureCollection", "features": [ {"type": "Feature", "properties": {"norad_id": 34031, "name": "COSMOS 2251 DEB", "group": "cosmos-2251-debris", "lat": -73.86120094147931, "lon": 43.806146521376505, "alt_km": 686.361709737931, "timestamp": "2025-12-17T19:34:08.431250+00:00", "meta": {"OBJECT_NAME": "COSMOS 2251 DEB", "OBJECT_ID": "1993-036HS", "EPOCH": "2025-12-17T08:35:10.128768", "MEAN_MOTION": 14.5974053, "ECCENTRICITY": 0.00229784, "INCLINATION": 74.0126, "RA_OF_ASC_NODE": 126.8874, "ARG_OF_PERICENTER": 246.9886, "MEAN_ANOMALY": 141.2241, "EPHEMERIS_TYPE": 0, "CLASSIFICATION_TYPE": "U", "NORAD_CAT_ID": 34031, "ELEMENT_SET_NO": 999, "REV_AT_EPOCH": 88633, "BSTAR": 0.0010110316, "MEAN_MOTION_DOT": 4.815e-05, "MEAN_MOTION_DDOT": 0}, "tle": {"line1": "1 34031U 93036HS  25351.35775612  .00004815  00000+0  10110-2 0  9996", "line2": "2 34031  74.0126 126.8874 0022978 246.9886 141.2241 14.59740530886331"}}, "geometry": {"type": "Point", "coordinates": [43.806146521376505, -73.86120094147931]}}, {"type": "Feature", "properties": {"norad_id": 34035, "name": "COSMOS 2251 DEB", "group": "cosmos-2251-debris", "lat": -62.02354325223179, "lon": -52.94205675071321, "alt_km": 703.943617444469, "timestamp": "2025-12-17T19:34:08.431261+00:00", "meta": {"OBJECT_NAME": "COSMOS 2251 DEB", "OBJECT_ID": "1993-036HW", "EPOCH": "2025-12-16T07:47:07.079136", "MEAN_MOTION": 14.51988505, "ECCENTRICITY": 0.00449549, "INCLINATION": 74.0654, "RA_OF_ASC_NODE": 342.3982, "ARG_OF_PERICENTER": 343.1436, "MEAN_ANOMALY": 80.0933, "EPHEMERIS_TYPE": 0, "CLASSIFICATION_TYPE": "U", "NORAD_CAT_ID": 34035, "ELEMENT_SET_NO": 999, "REV_AT_EPOCH": 88018, "BSTAR": 0.0012293043, "MEAN_MOTION_DOT": 5.006e-05, "MEAN_MOTION_DDOT": 0}, "tle": {"line1": "1 34035U 93036HW  25350.32438749  .00005006  00000+0  12293-2 0  9990", "line2": "2 34035  74.0654 342.3982 0044954 343.1436  80.0933 14.51988505880188"}}, "geometry": {"type": "Point", "coordinates": [-52.94205675071321, -62.02354325223179]}}, {"type": "Feature", "properties": {"norad_id": 34036, "name": "COSMOS 2251 DEB", "group": "cosmos-2251-debris", "lat": -72.34858338397864, "lon": 23.25816289696416, "alt_km": 588.6160471587855, "timestamp": "2025-12-17T19:34:08.431271+00:00", "meta": {"OBJECT_NAME": "COSMOS 2251 DEB", "OBJECT_ID": "1993-036HX", "EPOCH": "2025-12-15T11:48:16.297920", "MEAN_MOTION": 14.95207408, "ECCENTRICITY": 0.00117703, "INCLINATION": 74.0192, "RA_OF_ASC_NODE": 143.7108, "ARG_OF_PERICENTER": 175.2274, "MEAN_ANOMALY": 184.9024, "EPHEMERIS_TYPE": 0, "CLASSIFICATION_TYPE": "U", "NORAD_CAT_ID": 34036, "ELEMENT_SET_NO": 999, "REV_AT_EPOCH": 88611, "BSTAR": 0.0024574884, "MEAN_MOTION_DOT": 0.00027124, "MEAN_MOTION_DDOT": 0}, "tle": {"line1": "1 34036U 93036HX  25349.49185530  .00027124  00000+0  24575-2 0  9995", "line2": "2 34036  74.0192 143.7108 0011770 175.2274 184.9024 14.95207408886111"}}, "geometry": {"type": "Point", "coordinates": [23.25816289696416, -72.34858338397864]}}, {"type": "Feature", "properties": {"norad_id": 34037, "name": "COSMOS 2251 DEB", "group": "cosmos-2251-debris", "lat": -58.95826812670594, "lon": 12.78546096712576, "alt_km": 815.8166858649956, "timestamp": "2025-12-17T19:34:08.431281+00:00", "meta": {"OBJECT_NAME": "COSMOS 2251 DEB", "OBJECT_ID": "1993-036HY", "EPOCH": "2025-12-17T06:28:31.893312", "MEAN_MOTION": 14.34676855, "ECCENTRICITY": 0.00518748, "INCLINATION": 74.0514, "RA_OF_ASC_NODE": 42.1515, "ARG_OF_PERICENTER": 90.7742, "MEAN_ANOMALY": 269.9354, "EPHEMERIS_TYPE": 0, "CLASSIFICATION_TYPE": "U", "NORAD_CAT_ID": 34037, "ELEMENT_SET_NO": 999, "REV_AT_EPOCH": 87782, "BSTAR": 0.0003687873, "MEAN_MOTION_DOT": 1.034e-05, "MEAN_MOTION_DDOT": 0}, "tle": {"line1": "1 34037U 93036HY  25351.26981358  .00001034  00000+0  36879-3 0  9999", "line2": "2 34037  74.0514  42.1515 0051874  90.7742 269.9354 14.34676855877821"}}, "geometry": {"type": "Point", "coordinates": [12.78546096712576, -58.95826812670594]}}, {"type": "Feature", "properties": {"norad_id": 34040, "name": "COSMOS 2251 DEB", "group": "cosmos-2251-debris", "lat": 56.27892610234761, "lon": 83.01578127470167, "alt_km": 832.3182094950243, "timestamp": "2025-12-17T19:34:08.431291+00:00", "meta": {"OBJECT_NAME": "COSMOS 2251 DEB", "OBJECT_ID": "1993-036JB", "EPOCH": "2025-12-17T07:00:47.594592", "MEAN_MOTION": 13.68380945, "ECCENTRICITY": 0.0343173, "INCLINATION": 73.9558, "RA_OF_ASC_NODE": 58.3408, "ARG_OF_PERICENTER": 10.7815, "MEAN_ANOMALY": 350.0416, "EPHEMERIS_TYPE": 0, "CLASSIFICATION_TYPE": "U", "NORAD_CAT_ID": 34040, "ELEMENT_SET_NO": 999, "REV_AT_EPOCH": 83662, "BSTAR": 0.00047381254, "MEAN_MOTION_DOT": 5.88e-06, "MEAN_MOTION_DDOT": 0}, "tle": {"line1": "1 34040U 93036JB  25351.29221753  .00000588  00000+0  47381-3 0  9995", "line2": "2 34040  73.9558  58.3408 0343173  10.7815 350.0416 13.68380945836622"}}, "geometry": {"type": "Point", "coordinates": [83.01578127470167, 56.27892610234761]}}, {"type": "Feature", "properties": {"norad_id": 34045, "name": "COSMOS 2251 DEB", "group": "cosmos-2251-debris", "lat": -28.158924028882065, "lon": -67.26721574421948, "alt_km": 772.413424514788, "timestamp": "2025-12-17T19:34:08.431301+00:00", "meta": {"OBJECT_NAME": "COSMOS 2251 DEB", "OBJECT_ID": "1993-036JG", "EPOCH": "2025-12-17T08:33:30.857760", "MEAN_MOTION": 14.34071502, "ECCENTRICITY": 0.00258538, "INCLINATION": 74.0393, "RA_OF_ASC_NODE": 302.3836, "ARG_OF_PERICENTER": 24.546, "MEAN_ANOMALY": 98.8856, "EPHEMERIS_TYPE": 0, "CLASSIFICATION_TYPE": "U", "NORAD_CAT_ID": 34045, "ELEMENT_SET_NO": 999, "REV_AT_EPOCH": 88099, "BSTAR": 8.5788113e-05, "MEAN_MOTION_DOT": 2.15e-06, "MEAN_MOTION_DDOT": 0}, "tle": {"line1": "1 34045U 93036JG  25351.35660715  .00000215  00000+0  85788-4 0  9993", "line2": "2 34045  74.0393 302.3836 0025853  24.5460  98.8856 14.34071502880998"}}, "geometry": {"type": "Point", "coordinates": [-67.26721574421948, -28.158924028882065]}}, {"type": "Feature", "properties": {"norad_id": 34046, "name": "COSMOS 2251 DEB", "group": "cosmos-2251-debris", "lat": -7.258426032468042, "lon": -176.91460116965354, "alt_km": 753.486369713657, "timestamp": "2025-12-17T19:34:08.431311+00:00", "meta": {"OBJECT_NAME": "COSMOS 2251 DEB", "OBJECT_ID": "1993-036JH", "EPOCH": "2025-12-17T04:08:04.647264", "MEAN_MOTION": 14.46509065, "ECCENTRICITY": 0.0074432, "INCLINATION": 74.0392, "RA_OF_ASC_NODE": 2.1967, "ARG_OF_PERICENTER": 84.2781, "MEAN_ANOMALY": 354.7892, "EPHEMERIS_TYPE": 0, "CLASSIFICATION_TYPE": "U", "NORAD_CAT_ID": 34046, "ELEMENT_SET_NO": 999, "REV_AT_EPOCH": 87890, "BSTAR": 0.00089674621, "MEAN_MOTION_DOT": 3.315e-05, "MEAN_MOTION_DDOT": 0}, "tle": {"line1": "1 34046U 93036JH  25351.17227601  .00003315  00000+0  89675-3 0  9999", "line2": "2 34046  74.0392   2.1967 0074432  84.2781 354.7892 14.46509065878909"}}, "geometry": {"type": "Point", "coordinates": [-176.91460116965354, -7.258426032468042]}}, {"type": "Feature", "properties": {"norad_id": 34050, "name": "COSMOS 2251 DEB", "group": "cosmos-2251-debris", "lat": -42.98069073506788, "lon": -163.2378821258847, "alt_km": 1060.4781075908822, "timestamp": "2025-12-17T19:34:08.431320+00:00", "meta": {"OBJECT_NAME": "COSMOS 2251 DEB", "OBJECT_ID": "1993-036JM", "EPOCH": "2025-12-17T01:35:49.768800", "MEAN_MOTION": 13.96190441, "ECCENTRICITY": 0.02146025, "INCLINATION": 74.0883, "RA_OF_ASC_NODE": 2.6301, "ARG_OF_PERICENTER": 65.8341, "MEAN_ANOMALY": 356.049, "EPHEMERIS_TYPE": 0, "CLASSIFICATION_TYPE": "U", "NORAD_CAT_ID": 34050, "ELEMENT_SET_NO": 999, "REV_AT_EPOCH": 85492, "BSTAR": 0.00056880519, "MEAN_MOTION_DOT": 9.27e-06, "MEAN_MOTION_DDOT": 0}, "tle": {"line1": "1 34050U 93036JM  25351.06654825  .00000927  00000+0  56881-3 0  9993", "line2": "2 34050  74.0883   2.6301 0214602  65.8341 356.0490 13.96190441854921"}}, "geometry": {"type": "Point", "coordinates": [-163.2378821258847, -42.98069073506788]}}, {"type": "Feature", "properties": {"norad_id": 34053, "name": "COSMOS 2251 DEB", "group": "cosmos-2251-debris", "lat": 57.72880658313064, "lon": -98.68183475903722, "alt_km": 822.8823899291037, "timestamp": "2025-12-17T19:34:08.431330+00:00", "meta": {"OBJECT_NAME": "COSMOS 2251 DEB", "OBJECT_ID": "1993-036JQ", "EPOCH": "2025-12-17T03:16:21.823680", "MEAN_MOTION": 13.49168195, "ECCENTRICITY": 0.04224843, "INCLINATION": 73.8437, "RA_OF_ASC_NODE": 235.0866, "ARG_OF_PERICENTER": 22.9107, "MEAN_ANOMALY": 339.0241, "EPHEMERIS_TYPE": 0, "CLASSIFICATION_TYPE": "U", "NORAD_CAT_ID": 34053, "ELEMENT_SET_NO": 999, "REV_AT_EPOCH": 82743, "BSTAR": 0.00062244619, "MEAN_MOTION_DOT": 6.58e-06, "MEAN_MOTION_DDOT": 0}, "tle": {"line1": "1 34053U 93036JQ  25351.13636370  .00000658  00000+0  62245-3 0  9991", "line2": "2 34053  73.8437 235.0866 0422484  22.9107 339.0241 13.49168195827437"}}, "geometry": {"type": "Point", "coordinates": [-98.68183475903722, 57.72880658313064]}}, {"type": "Feature", "properties": {"norad_id": 34056, "name": "COSMOS 2251 DEB", "group": "cosmos-2251-debris", "lat": 73.42843374005022, "lon": 173.47375970089007, "alt_km": 731.6949569798262, "timestamp": "2025-12-17T19:34:08.431340+00:00", "meta": {"OBJECT_NAME": "COSMOS 2251 DEB", "OBJECT_ID": "1993-036JT", "EPOCH": "2025-12-17T07:35:28.821984", "MEAN_MOTION": 14.20574168, "ECCENTRICITY": 0.01238479, "INCLINATION": 74.0598, "RA_OF_ASC_NODE": 68.1942, "ARG_OF_PERICENTER": 114.818, "MEAN_ANOMALY": 308.9315, "EPHEMERIS_TYPE": 0, "CLASSIFICATION_TYPE": "U", "NORAD_CAT_ID": 34056, "ELEMENT_SET_NO": 999, "REV_AT_EPOCH": 86476, "BSTAR": 0.00053261504, "MEAN_MOTION_DOT": 1.213e-05, "MEAN_MOTION_DDOT": 0}, "tle": {"line1": "1 34056U 93036JT  25351.31630581  .00001213  00000+0  53262-3 0  9999", "line2": "2 34056  74.0598  68.1942 0123847 114.8180 308.9315 14.20574168864769"}}, "geometry": {"type": "Point", "coordinates": [173.47375970089007, 73.42843374005022]}}]}